BEIJING 1               
1 28890U 05043A   24220.61216458  .00000868  00000+0  18070-3 0  9992
2 28890  98.2061 343.1132 0013766 243.2059 116.7735 14.62433192  1422
HUANJING 1A (HJ-1A)     
1 33320U 08041A   24220.54324853  .00002959  00000+0  39415-3 0  9997
2 33320  97.6319 225.0303 0019712 198.8203 161.2284 14.80234630857852
HUANJING 1B (HJ-1B)     
1 33321U 08041B   24220.60551678  .00001928  00000+0  25581-3 0  9996
2 33321  97.6265 229.6161 0036709 246.8785 112.8558 14.80465129857898
YAOGAN-4                
1 33446U 08061A   24220.40895203  .00002393  00000+0  32217-3 0  9990
2 33446  97.8791 151.3244 0016552 116.5606 243.7305 14.80042203845136
DEIMOS-1                
1 35681U 09041A   24220.60481976  .00001337  00000+0  21309-3 0  9999
2 35681  97.6824  39.7788 0001174 154.7588 205.3679 14.73455771806880
UK-DMC 2                
1 35683U 09041C   24220.61169574  .00002062  00000+0  32467-3 0  9992
2 35683  97.7884   6.1626 0001140  89.6351 270.4988 14.73510501806536
DMC3-FM1                
1 40715U 15032A   24220.55210462  .00001512  00000+0  18861-3 0  9998
2 40715  97.7426  97.9481 0007048 117.4979 242.6952 14.83829983489195
DMC3-FM2                
1 40716U 15032B   24220.57473114  .00001546  00000+0  19253-3 0  9999
2 40716  97.7478  99.0739 0008869 123.0299 237.1769 14.83837407489197
DMC3-FM3                
1 40717U 15032C   24220.53501054  .00001525  00000+0  19039-3 0  9990
2 40717  97.7527 100.3354 0010360 121.5961 238.6266 14.83744624489196
